{
  "type": "FeatureCollection",
  "features": [
    {
      "type": "Feature",
      "properties": {
        "norad_id": 33886,
        "name": "IRIDIUM 33 DEB",
        "group": "iridium-33-debris",
        "lat": -25.091327220480938,
        "lon": -113.54853164576885,
        "alt_km": 768.438471492851,
        "timestamp": "2025-12-18T14:52:08.409473+00:00",
        "meta_object_name": "IRIDIUM 33 DEB",
        "meta_object_id": "1997-051BF",
        "meta_epoch": "2025-12-18T05:51:24.712128",
        "meta_mean_motion": 14.36058537,
        "meta_eccentricity": 0.00127478,
        "meta_inclination": 86.3827,
        "meta_ra_of_asc_node": 64.9121,
        "meta_arg_of_pericenter": 221.7608,
        "meta_mean_anomaly": 203.2449,
        "meta_ephemeris_type": 0,
        "meta_classification_type": "U",
        "meta_norad_cat_id": 33886,
        "meta_element_set_no": 999,
        "meta_rev_at_epoch": 88131,
        "meta_bstar": 0.00016091906,
        "meta_mean_motion_dot": 4.88e-06,
        "meta_mean_motion_ddot": 0,
        "tle_line1": "1 33886U 97051BF  25352.24403602  .00000488  00000+0  16092-3 0  9998",
        "tle_line2": "2 33886  86.3827  64.9121 0012747 221.7608 203.2449 14.36058537881311"
      },
      "geometry": {
        "type": "Point",
        "coordinates": [
          -113.54853164576885,
          -25.091327220480938
        ]
      }
    },
    {
      "type": "Feature",
      "properties": {
        "norad_id": 33887,
        "name": "IRIDIUM 33 DEB",
        "group": "iridium-33-debris",
        "lat": 13.86300295209487,
        "lon": 179.94438110218263,
        "alt_km": 765.9251269728802,
        "timestamp": "2025-12-18T14:52:08.409483+00:00",
        "meta_object_name": "IRIDIUM 33 DEB",
        "meta_object_id": "1997-051BG",
        "meta_epoch": "2025-12-18T00:58:46.314048",
        "meta_mean_motion": 14.37225774,
        "meta_eccentricity": 0.00049614,
        "meta_inclination": 86.3041,
        "meta_ra_of_asc_node": 1.1077,
        "meta_arg_of_pericenter": 204.7523,
        "meta_mean_anomaly": 208.8254,
        "meta_ephemeris_type": 0,
        "meta_classification_type": "U",
        "meta_norad_cat_id": 33887,
        "meta_element_set_no": 999,
        "meta_rev_at_epoch": 88241,
        "meta_bstar": 0.00012406727,
        "meta_mean_motion_dot": 3.89e-06,
        "meta_mean_motion_ddot": 0,
        "tle_line1": "1 33887U 97051BG  25352.04081382  .00000389  00000+0  12407-3 0  9990",
        "tle_line2": "2 33887  86.3041   1.1077 0004961 204.7523 208.8254 14.37225774882416"
      },
      "geometry": {
        "type": "Point",
        "coordinates": [
          179.94438110218263,
          13.86300295209487
        ]
      }
    },
    {
      "type": "Feature",
      "properties": {
        "norad_id": 33953,
        "name": "IRIDIUM 33 DEB",
        "group": "iridium-33-debris",
        "lat": 44.444331976978994,
        "lon": 54.78304562790647,
        "alt_km": 694.6458550646412,
        "timestamp": "2025-12-18T14:52:08.409493+00:00",
        "meta_object_name": "IRIDIUM 33 DEB",
        "meta_object_id": "1997-051BN",
        "meta_epoch": "2025-12-18T05:01:59.483136",
        "meta_mean_motion": 14.55376631,
        "meta_eccentricity": 0.00180872,
        "meta_inclination": 86.3847,
        "meta_ra_of_asc_node": 51.4057,
        "meta_arg_of_pericenter": 86.1806,
        "meta_mean_anomaly": 332.7488,
        "meta_ephemeris_type": 0,
        "meta_classification_type": "U",
        "meta_norad_cat_id": 33953,
        "meta_element_set_no": 999,
        "meta_rev_at_epoch": 88383,
        "meta_bstar": 0.00090494246,
        "meta_mean_motion_dot": 3.956e-05,
        "meta_mean_motion_ddot": 0,
        "tle_line1": "1 33953U 97051BN  25352.20971624  .00003956  00000+0  90494-3 0  9994",
        "tle_line2": "2 33953  86.3847  51.4057 0018087  86.1806 332.7488 14.55376631883832"
      },
      "geometry": {
        "type": "Point",
        "coordinates": [
          54.78304562790647,
          44.444331976978994
        ]
      }
    },
    {
      "type": "Feature",
      "properties": {
        "norad_id": 33960,
        "name": "IRIDIUM 33 DEB",
        "group": "iridium-33-debris",
        "lat": 56.65552698320379,
        "lon": 101.02625818868965,
        "alt_km": 605.0626920599962,
        "timestamp": "2025-12-18T14:52:08.409504+00:00",
        "meta_object_name": "IRIDIUM 33 DEB",
        "meta_object_id": "1997-051BV",
        "meta_epoch": "2025-12-18T06:57:12.542400",
        "meta_mean_motion": 14.854684,
        "meta_eccentricity": 0.00074505,
        "meta_inclination": 86.2539,
        "meta_ra_of_asc_node": 286.8965,
        "meta_arg_of_pericenter": 53.039,
        "meta_mean_anomaly": 107.3954,
        "meta_ephemeris_type": 0,
        "meta_classification_type": "U",
        "meta_norad_cat_id": 33960,
        "meta_element_set_no": 999,
        "meta_rev_at_epoch": 88949,
        "meta_bstar": 0.0027672748,
        "meta_mean_motion_dot": 0.00023957,
        "meta_mean_motion_ddot": 0,
        "tle_line1": "1 33960U 97051BV  25352.28972850  .00023957  00000+0  27673-2 0  9993",
        "tle_line2": "2 33960  86.2539 286.8965 0007450  53.0390 107.3954 14.85468400889493"
      },
      "geometry": {
        "type": "Point",
        "coordinates": [
          101.02625818868965,
          56.65552698320379
        ]
      }
    },
    {
      "type": "Feature",
      "properties": {
        "norad_id": 33966,
        "name": "IRIDIUM 33 DEB",
        "group": "iridium-33-debris",
        "lat": 49.002932427894116,
        "lon": 47.66704492603662,
        "alt_km": 725.423208145372,
        "timestamp": "2025-12-18T14:52:08.409514+00:00",
        "meta_object_name": "IRIDIUM 33 DEB",
        "meta_object_id": "1997-051CB",
        "meta_epoch": "2025-12-18T05:02:06.942048",
        "meta_mean_motion": 14.49615454,
        "meta_eccentricity": 0.00080157,
        "meta_inclination": 86.3919,
        "meta_ra_of_asc_node": 43.6799,
        "meta_arg_of_pericenter": 170.7451,
        "meta_mean_anomaly": 261.6394,
        "meta_ephemeris_type": 0,
        "meta_classification_type": "U",
        "meta_norad_cat_id": 33966,
        "meta_element_set_no": 999,
        "meta_rev_at_epoch": 88521,
        "meta_bstar": 0.00042341797,
        "meta_mean_motion_dot": 1.646e-05,
        "meta_mean_motion_ddot": 0,
        "tle_line1": "1 33966U 97051CB  25352.20980257  .00001646  00000+0  42342-3 0  9993",
        "tle_line2": "2 33966  86.3919  43.6799 0008015 170.7451 261.6394 14.49615454885210"
      },
      "geometry": {
        "type": "Point",
        "coordinates": [
          47.66704492603662,
          49.002932427894116
        ]
      }
    },
    {
      "type": "Feature",
      "properties": {
        "norad_id": 34071,
        "name": "IRIDIUM 33 DEB",
        "group": "iridium-33-debris",
        "lat": 66.67208073789065,
        "lon": -173.2512153398138,
        "alt_km": 714.3262389045358,
        "timestamp": "2025-12-18T14:52:08.409525+00:00",
        "meta_object_name": "IRIDIUM 33 DEB",
        "meta_object_id": "1997-051CE",
        "meta_epoch": "2025-12-18T07:43:22.413216",
        "meta_mean_motion": 14.4948889,
        "meta_eccentricity": 0.00099568,
        "meta_inclination": 86.345,
        "meta_ra_of_asc_node": 15.4021,
        "meta_arg_of_pericenter": 92.446,
        "meta_mean_anomaly": 267.7884,
        "meta_ephemeris_type": 0,
        "meta_classification_type": "U",
        "meta_norad_cat_id": 34071,
        "meta_element_set_no": 999,
        "meta_rev_at_epoch": 88415,
        "meta_bstar": 0.00048215715,
        "meta_mean_motion_dot": 1.867e-05,
        "meta_mean_motion_ddot": 0,
        "tle_line1": "1 34071U 97051CE  25352.32178719  .00001867  00000+0  48216-3 0  9997",
        "tle_line2": "2 34071  86.3450  15.4021 0009956  92.4460 267.7884 14.49488890884153"
      },
      "geometry": {
        "type": "Point",
        "coordinates": [
          -173.2512153398138,
          66.67208073789065
        ]
      }
    },
    {
      "type": "Feature",
      "properties": {
        "norad_id": 34077,
        "name": "IRIDIUM 33 DEB",
        "group": "iridium-33-debris",
        "lat": -78.84864638588121,
        "lon": 30.215557497120212,
        "alt_km": 686.0415372077559,
        "timestamp": "2025-12-18T14:52:08.409535+00:00",
        "meta_object_name": "IRIDIUM 33 DEB",
        "meta_object_id": "1997-051CL",
        "meta_epoch": "2025-12-18T03:59:51.140832",
        "meta_mean_motion": 14.64893341,
        "meta_eccentricity": 0.00095976,
        "meta_inclination": 86.3857,
        "meta_ra_of_asc_node": 49.1172,
        "meta_arg_of_pericenter": 22.3717,
        "meta_mean_anomaly": 31.0362,
        "meta_ephemeris_type": 0,
        "meta_classification_type": "U",
        "meta_norad_cat_id": 34077,
        "meta_element_set_no": 999,
        "meta_rev_at_epoch": 88412,
        "meta_bstar": 0.00076822632,
        "meta_mean_motion_dot": 4.129e-05,
        "meta_mean_motion_ddot": 0,
        "tle_line1": "1 34077U 97051CL  25352.16656413  .00004129  00000+0  76823-3 0  9996",
        "tle_line2": "2 34077  86.3857  49.1172 0009597  22.3717  31.0362 14.64893341884127"
      },
      "geometry": {
        "type": "Point",
        "coordinates": [
          30.215557497120212,
          -78.84864638588121
        ]
      }
    }
  ]
}